[
  { "nameEn": "Afghanistan", "nameAr": "أفغانستان", "iso": "AF" },
  { "nameEn": "Albania", "nameAr": "ألبانيا", "iso": "AL" },
  { "nameEn": "Algeria", "nameAr": "الجزائر", "iso": "DZ" },
  { "nameEn": "American Samoa", "nameAr": "ساموا الأمريكية", "iso": "AS" },
  { "nameEn": "Andorra", "nameAr": "أندورا", "iso": "AD" },
  { "nameEn": "Angola", "nameAr": "أنغولا", "iso": "AO" },
  { "nameEn": "Anguilla", "nameAr": "أنغويلا", "iso": "AI" },
  { "nameEn": "Antarctica", "nameAr": "أنتاركتيكا", "iso": "AQ" },
  { "nameEn": "Antigua and Barbuda", "nameAr": "أنتيغوا وبربودا", "iso": "AG" },
  { "nameEn": "Argentina", "nameAr": "الأرجنتين", "iso": "AR" },
  { "nameEn": "Armenia", "nameAr": "أرمينيا", "iso": "AM" },
  { "nameEn": "Aruba", "nameAr": "أروبا", "iso": "AW" },
  { "nameEn": "Australia", "nameAr": "أستراليا", "iso": "AU" },
  { "nameEn": "Austria", "nameAr": "النمسا", "iso": "AT" },
  { "nameEn": "Azerbaijan", "nameAr": "أذربيجان", "iso": "AZ" },
  { "nameEn": "Bahamas", "nameAr": "جزر البهاما", "iso": "BS" },
  { "nameEn": "Bahrain", "nameAr": "البحرين", "iso": "BH" },
  { "nameEn": "Bangladesh", "nameAr": "بنغلاديش", "iso": "BD" },
  { "nameEn": "Barbados", "nameAr": "بربادوس", "iso": "BB" },
  { "nameEn": "Belarus", "nameAr": "بيلاروسيا", "iso": "BY" },
  { "nameEn": "Belgium", "nameAr": "بلجيكا", "iso": "BE" },
  { "nameEn": "Belize", "nameAr": "بليز", "iso": "BZ" },
  { "nameEn": "Benin", "nameAr": "بنين", "iso": "BJ" },
  { "nameEn": "Bermuda", "nameAr": "برمودا", "iso": "BM" },
  { "nameEn": "Bhutan", "nameAr": "بوتان", "iso": "BT" },
  { "nameEn": "Bolivia", "nameAr": "بوليفيا", "iso": "BO" },
  {
    "nameEn": "Bosnia and Herzegovina",
    "nameAr": "البوسنة والهرسك",
    "iso": "BA"
  },
  { "nameEn": "Botswana", "nameAr": "بوتسوانا", "iso": "BW" },
  { "nameEn": "Bouvet Island", "nameAr": "جزيرة بوفيه", "iso": "BV" },
  { "nameEn": "Brazil", "nameAr": "البرازيل", "iso": "BR" },
  {
    "nameEn": "British Indian Ocean Territory",
    "nameAr": "إقليم المحيط الهندي البريطاني",
    "iso": "IO"
  },
  { "nameEn": "Brunei Darussalam", "nameAr": "بروناي", "iso": "BN" },
  { "nameEn": "Bulgaria", "nameAr": "بلغاريا", "iso": "BG" },
  { "nameEn": "Burkina Faso", "nameAr": "بوركينا فاسو", "iso": "BF" },
  { "nameEn": "Burundi", "nameAr": "بوروندي", "iso": "BI" },
  { "nameEn": "Cambodia", "nameAr": "كمبوديا", "iso": "KH" },
  { "nameEn": "Cameroon", "nameAr": "الكاميرون", "iso": "CM" },
  { "nameEn": "Canada", "nameAr": "كندا", "iso": "CA" },
  { "nameEn": "Cape Verde", "nameAr": "الرأس الأخضر", "iso": "CV" },
  { "nameEn": "Cayman Islands", "nameAr": "جزر كايمان", "iso": "KY" },
  {
    "nameEn": "Central African Republic",
    "nameAr": "جمهورية إفريقيا الوسطى",
    "iso": "CF"
  },
  { "nameEn": "Chad", "nameAr": "تشاد", "iso": "TD" },
  { "nameEn": "Chile", "nameAr": "تشيلي", "iso": "CL" },
  { "nameEn": "China", "nameAr": "الصين", "iso": "CN" },
  { "nameEn": "Christmas Island", "nameAr": "جزيرة الكريسماس", "iso": "CX" },
  { "nameEn": "Cocos (Keeling) Islands", "nameAr": "جزر كوكوس", "iso": "CC" },
  { "nameEn": "Colombia", "nameAr": "كولومبيا", "iso": "CO" },
  { "nameEn": "Comoros", "nameAr": "جزر القمر", "iso": "KM" },
  { "nameEn": "Congo", "nameAr": "الكونغو", "iso": "CG" },
  {
    "nameEn": "Congo, Democratic Republic",
    "nameAr": "جمهورية الكونغو الديمقراطية",
    "iso": "CD"
  },
  { "nameEn": "Cook Islands", "nameAr": "جزر كوك", "iso": "CK" },
  { "nameEn": "Costa Rica", "nameAr": "كوستاريكا", "iso": "CR" },
  { "nameEn": "Croatia", "nameAr": "كرواتيا", "iso": "HR" },
  { "nameEn": "Cuba", "nameAr": "كوبا", "iso": "CU" },
  { "nameEn": "Cyprus", "nameAr": "قبرص", "iso": "CY" },
  { "nameEn": "Czech Republic", "nameAr": "الجمهورية التشيكية", "iso": "CZ" },
  { "nameEn": "Denmark", "nameAr": "الدنمارك", "iso": "DK" },
  { "nameEn": "Djibouti", "nameAr": "جيبوتي", "iso": "DJ" },
  { "nameEn": "Dominica", "nameAr": "دومينيكا", "iso": "DM" },
  {
    "nameEn": "Dominican Republic",
    "nameAr": "جمهورية الدومينيكان",
    "iso": "DO"
  },
  { "nameEn": "Ecuador", "nameAr": "إكوادور", "iso": "EC" },
  { "nameEn": "Egypt", "nameAr": "مصر", "iso": "EG" },
  { "nameEn": "El Salvador", "nameAr": "السلفادور", "iso": "SV" },
  { "nameEn": "Equatorial Guinea", "nameAr": "غينيا الاستوائية", "iso": "GQ" },
  { "nameEn": "Eritrea", "nameAr": "إريتريا", "iso": "ER" },
  { "nameEn": "Estonia", "nameAr": "إستونيا", "iso": "EE" },
  { "nameEn": "Ethiopia", "nameAr": "إثيوبيا", "iso": "ET" },
  { "nameEn": "Falkland Islands", "nameAr": "جزر فوكلاند", "iso": "FK" },
  { "nameEn": "Faroe Islands", "nameAr": "جزر فارو", "iso": "FO" },
  { "nameEn": "Fiji", "nameAr": "فيجي", "iso": "FJ" },
  { "nameEn": "Finland", "nameAr": "فنلندا", "iso": "FI" },
  { "nameEn": "France", "nameAr": "فرنسا", "iso": "FR" },
  { "nameEn": "French Guiana", "nameAr": "غويانا الفرنسية", "iso": "GF" },
  { "nameEn": "French Polynesia", "nameAr": "بولينيزيا الفرنسية", "iso": "PF" },
  {
    "nameEn": "French Southern Territories",
    "nameAr": "الأقاليم الجنوبية الفرنسية",
    "iso": "TF"
  },
  { "nameEn": "Gabon", "nameAr": "الغابون", "iso": "GA" },
  { "nameEn": "Gambia", "nameAr": "غامبيا", "iso": "GM" },
  { "nameEn": "Georgia", "nameAr": "جورجيا", "iso": "GE" },
  { "nameEn": "Germany", "nameAr": "ألمانيا", "iso": "DE" },
  { "nameEn": "Ghana", "nameAr": "غانا", "iso": "GH" },
  { "nameEn": "Gibraltar", "nameAr": "جبل طارق", "iso": "GI" },
  { "nameEn": "Greece", "nameAr": "اليونان", "iso": "GR" },
  { "nameEn": "Greenland", "nameAr": "غرينلاند", "iso": "GL" },
  { "nameEn": "Grenada", "nameAr": "غرينادا", "iso": "GD" },
  { "nameEn": "Guadeloupe", "nameAr": "جزر جوادلوب", "iso": "GP" },
  { "nameEn": "Guam", "nameAr": "غوام", "iso": "GU" },
  { "nameEn": "Guatemala", "nameAr": "غواتيمالا", "iso": "GT" },
  { "nameEn": "Guernsey", "nameAr": "غيرنزي", "iso": "GG" },
  { "nameEn": "Guinea", "nameAr": "غينيا", "iso": "GN" },
  { "nameEn": "Guinea-Bissau", "nameAr": "غينيا بيساو", "iso": "GW" },
  { "nameEn": "Guyana", "nameAr": "غيانا", "iso": "GY" },
  { "nameEn": "Haiti", "nameAr": "هايتي", "iso": "HT" },
  {
    "nameEn": "Heard Island and McDonald Islands",
    "nameAr": "جزيرة هيرد وجزر ماكدونالد",
    "iso": "HM"
  },
  {
    "nameEn": "Holy See (Vatican City State)",
    "nameAr": "الكرسي الرسولي (دولة مدينة الفاتيكان)",
    "iso": "VA"
  },
  { "nameEn": "Honduras", "nameAr": "هندوراس", "iso": "HN" },
  { "nameEn": "Hong Kong", "nameAr": "هونغ كونغ", "iso": "HK" },
  { "nameEn": "Hungary", "nameAr": "هنغاريا", "iso": "HU" },
  { "nameEn": "Iceland", "nameAr": "آيسلندا", "iso": "IS" },
  { "nameEn": "India", "nameAr": "الهند", "iso": "IN" },
  { "nameEn": "Indonesia", "nameAr": "إندونيسيا", "iso": "ID" },
  { "nameEn": "Iran", "nameAr": "إيران", "iso": "IR" },
  { "nameEn": "Iraq", "nameAr": "العراق", "iso": "IQ" },
  { "nameEn": "Ireland", "nameAr": "أيرلندا", "iso": "IE" },
  { "nameEn": "Isle of Man", "nameAr": "جزيرة مان", "iso": "IM" },
  { "nameEn": "Italy", "nameAr": "إيطاليا", "iso": "IT" },
  { "nameEn": "Ivory Coast", "nameAr": "ساحل العاج", "iso": "CI" },
  { "nameEn": "Jamaica", "nameAr": "جامايكا", "iso": "JM" },
  { "nameEn": "Japan", "nameAr": "اليابان", "iso": "JP" },
  { "nameEn": "Jersey", "nameAr": "جيرسي", "iso": "JE" },
  { "nameEn": "Jordan", "nameAr": "الأردن", "iso": "JO" },
  { "nameEn": "Kazakhstan", "nameAr": "كازاخستان", "iso": "KZ" },
  { "nameEn": "Kenya", "nameAr": "كينيا", "iso": "KE" },
  { "nameEn": "Kiribati", "nameAr": "كيريباس", "iso": "KI" },
  {
    "nameEn": "Korea, Democratic People's Republic of",
    "nameAr": "كوريا الشمالية",
    "iso": "KP"
  },
  { "nameEn": "Korea, Republic of", "nameAr": "كوريا الجنوبية", "iso": "KR" },
  { "nameEn": "Kuwait", "nameAr": "الكويت", "iso": "KW" },
  { "nameEn": "Kyrgyzstan", "nameAr": "قيرغيزستان", "iso": "KG" },
  {
    "nameEn": "Lao People's Democratic Republic",
    "nameAr": "لاوس",
    "iso": "LA"
  },
  { "nameEn": "Latvia", "nameAr": "لاتفيا", "iso": "LV" },
  { "nameEn": "Lebanon", "nameAr": "لبنان", "iso": "LB" },
  { "nameEn": "Lesotho", "nameAr": "ليسوتو", "iso": "LS" },
  { "nameEn": "Liberia", "nameAr": "ليبيريا", "iso": "LR" },
  { "nameEn": "Libyan Arab Jamahiriya", "nameAr": "ليبيا", "iso": "LY" },
  { "nameEn": "Liechtenstein", "nameAr": "ليختنشتاين", "iso": "LI" },
  { "nameEn": "Lithuania", "nameAr": "ليتوانيا", "iso": "LT" },
  { "nameEn": "Luxembourg", "nameAr": "لوكسمبورغ", "iso": "LU" },
  { "nameEn": "Macao", "nameAr": "ماكاو", "iso": "MO" },
  { "nameEn": "Macedonia", "nameAr": "مقدونيا", "iso": "MK" },
  { "nameEn": "Madagascar", "nameAr": "مدغشقر", "iso": "MG" },
  { "nameEn": "Malawi", "nameAr": "مالاوي", "iso": "MW" },
  { "nameEn": "Malaysia", "nameAr": "ماليزيا", "iso": "MY" },
  { "nameEn": "Maldives", "nameAr": "جزر المالديف", "iso": "MV" },
  { "nameEn": "Mali", "nameAr": "مالي", "iso": "ML" },
  { "nameEn": "Malta", "nameAr": "مالطا", "iso": "MT" },
  { "nameEn": "Marshall Islands", "nameAr": "جزر مارشال", "iso": "MH" },
  { "nameEn": "Martinique", "nameAr": "مارتينيك", "iso": "MQ" },
  { "nameEn": "Mauritania", "nameAr": "موريتانيا", "iso": "MR" },
  { "nameEn": "Mauritius", "nameAr": "موريشيوس", "iso": "MU" },
  { "nameEn": "Mayotte", "nameAr": "مايوت", "iso": "YT" },
  { "nameEn": "Mexico", "nameAr": "المكسيك", "iso": "MX" },
  {
    "nameEn": "Micronesia, Federated States of",
    "nameAr": "ميكرونيزيا",
    "iso": "FM"
  },
  { "nameEn": "Moldova, Republic of", "nameAr": "مولدوفا", "iso": "MD" },
  { "nameEn": "Monaco", "nameAr": "موناكو", "iso": "MC" },
  { "nameEn": "Mongolia", "nameAr": "منغوليا", "iso": "MN" },
  { "nameEn": "Montenegro", "nameAr": "الجبل الأسود", "iso": "ME" },
  { "nameEn": "Montserrat", "nameAr": "مونتسيرات", "iso": "MS" },
  { "nameEn": "Morocco", "nameAr": "المغرب", "iso": "MA" },
  { "nameEn": "Mozambique", "nameAr": "موزمبيق", "iso": "MZ" },
  { "nameEn": "Myanmar", "nameAr": "ميانمار", "iso": "MM" },
  { "nameEn": "Namibia", "nameAr": "ناميبيا", "iso": "NA" },
  { "nameEn": "Nauru", "nameAr": "ناورو", "iso": "NR" },
  { "nameEn": "Nepal", "nameAr": "نيبال", "iso": "NP" },
  { "nameEn": "Netherlands", "nameAr": "هولندا", "iso": "NL" },
  {
    "nameEn": "Netherlands Antilles",
    "nameAr": "جزر الأنتيل الهولندية",
    "iso": "AN"
  },
  { "nameEn": "New Caledonia", "nameAr": "كاليدونيا الجديدة", "iso": "NC" },
  { "nameEn": "New Zealand", "nameAr": "نيوزيلندا", "iso": "NZ" },
  { "nameEn": "Nicaragua", "nameAr": "نيكاراغوا", "iso": "NI" },
  { "nameEn": "Niger", "nameAr": "النيجر", "iso": "NE" },
  { "nameEn": "Nigeria", "nameAr": "نيجيريا", "iso": "NG" },
  { "nameEn": "Niue", "nameAr": "نيوي", "iso": "NU" },
  { "nameEn": "Norfolk Island", "nameAr": "جزيرة نورفولك", "iso": "NF" },
  {
    "nameEn": "Northern Mariana Islands",
    "nameAr": "جزر ماريانا الشمالية",
    "iso": "MP"
  },
  { "nameEn": "Norway", "nameAr": "النرويج", "iso": "NO" },
  { "nameEn": "Oman", "nameAr": "عُمان", "iso": "OM" },
  { "nameEn": "Pakistan", "nameAr": "باكستان", "iso": "PK" },
  { "nameEn": "Palau", "nameAr": "بالاو", "iso": "PW" },
  {
    "nameEn": "Palestinian Territory",
    "nameAr": "الأرض الفلسطينية",
    "iso": "PS"
  },
  { "nameEn": "Panama", "nameAr": "بنما", "iso": "PA" },
  {
    "nameEn": "Papua New Guinea",
    "nameAr": "بابوا غينيا الجديدة",
    "iso": "PG"
  },
  { "nameEn": "Paraguay", "nameAr": "باراغواي", "iso": "PY" },
  { "nameEn": "Peru", "nameAr": "بيرو", "iso": "PE" },
  { "nameEn": "Philippines", "nameAr": "الفلبين", "iso": "PH" },
  { "nameEn": "Pitcairn", "nameAr": "بيتكيرن", "iso": "PN" },
  { "nameEn": "Poland", "nameAr": "بولندا", "iso": "PL" },
  { "nameEn": "Portugal", "nameAr": "البرتغال", "iso": "PT" },
  { "nameEn": "Puerto Rico", "nameAr": "بورتوريكو", "iso": "PR" },
  { "nameEn": "Qatar", "nameAr": "قطر", "iso": "QA" },
  { "nameEn": "Reunion", "nameAr": "روينيون", "iso": "RE" },
  { "nameEn": "Romania", "nameAr": "رومانيا", "iso": "RO" },
  { "nameEn": "Russian Federation", "nameAr": "الاتحاد الروسي", "iso": "RU" },
  { "nameEn": "Rwanda", "nameAr": "رواندا", "iso": "RW" },
  { "nameEn": "Saint Helena", "nameAr": "سانت هيلينا", "iso": "SH" },
  {
    "nameEn": "Saint Kitts and Nevis",
    "nameAr": "سانت كيتس ونيفيس",
    "iso": "KN"
  },
  { "nameEn": "Saint Lucia", "nameAr": "سانت لوسيا", "iso": "LC" },
  {
    "nameEn": "Saint Pierre and Miquelon",
    "nameAr": "سانت بيير وميكلون",
    "iso": "PM"
  },
  {
    "nameEn": "Saint Vincent and the Grenadines",
    "nameAr": "سانت فنسنت والغرينادين",
    "iso": "VC"
  },
  { "nameEn": "Samoa", "nameAr": "ساموا", "iso": "WS" },
  { "nameEn": "San Marino", "nameAr": "سان مارينو", "iso": "SM" },
  {
    "nameEn": "Sao Tome and Principe",
    "nameAr": "ساو تومي وبرينسيبي",
    "iso": "ST"
  },
  {
    "nameEn": "Saudi Arabia",
    "nameAr": "المملكة العربية السعودية",
    "iso": "SA"
  },
  { "nameEn": "Senegal", "nameAr": "السنغال", "iso": "SN" },
  { "nameEn": "Serbia", "nameAr": "صربيا", "iso": "RS" },
  { "nameEn": "Seychelles", "nameAr": "سيشيل", "iso": "SC" },
  { "nameEn": "Sierra Leone", "nameAr": "سيراليون", "iso": "SL" },
  { "nameEn": "Singapore", "nameAr": "سنغافورة", "iso": "SG" },
  { "nameEn": "Slovakia", "nameAr": "سلوفاكيا", "iso": "SK" },
  { "nameEn": "Slovenia", "nameAr": "سلوفينيا", "iso": "SI" },
  { "nameEn": "Solomon Islands", "nameAr": "جزر سليمان", "iso": "SB" },
  { "nameEn": "Somalia", "nameAr": "الصومال", "iso": "SO" },
  { "nameEn": "South Africa", "nameAr": "جنوب إفريقيا", "iso": "ZA" },
  {
    "nameEn": "South Georgia and the South Sandwich Islands",
    "nameAr": "جورجيا الجنوبية وجزر ساندويتش الجنوبية",
    "iso": "GS"
  },
  { "nameEn": "Spain", "nameAr": "إسبانيا", "iso": "ES" },
  { "nameEn": "Sri Lanka", "nameAr": "سريلانكا", "iso": "LK" },
  { "nameEn": "Sudan", "nameAr": "السودان", "iso": "SD" },
  { "nameEn": "Suriname", "nameAr": "سورينام", "iso": "SR" },
  {
    "nameEn": "Svalbard and Jan Mayen",
    "nameAr": "سفالبارد ويان ماين",
    "iso": "SJ"
  },
  { "nameEn": "Swaziland", "nameAr": "سوازيلاند", "iso": "SZ" },
  { "nameEn": "Sweden", "nameAr": "السويد", "iso": "SE" },
  { "nameEn": "Switzerland", "nameAr": "سويسرا", "iso": "CH" },
  { "nameEn": "Syrian Arab Republic", "nameAr": "سوريا", "iso": "SY" },
  { "nameEn": "Taiwan", "nameAr": "تايوان", "iso": "TW" },
  { "nameEn": "Tajikistan", "nameAr": "طاجيكستان", "iso": "TJ" },
  {
    "nameEn": "Tanzania, United Republic of",
    "nameAr": "تنزانيا",
    "iso": "TZ"
  },
  { "nameEn": "Thailand", "nameAr": "تايلاند", "iso": "TH" },
  { "nameEn": "Timor-Leste", "nameAr": "تيمور الشرقية", "iso": "TL" },
  { "nameEn": "Togo", "nameAr": "توغو", "iso": "TG" },
  { "nameEn": "Tokelau", "nameAr": "توكيلاو", "iso": "TK" },
  { "nameEn": "Tonga", "nameAr": "تونغا", "iso": "TO" },
  {
    "nameEn": "Trinidad and Tobago",
    "nameAr": "ترينيداد وتوباغو",
    "iso": "TT"
  },
  { "nameEn": "Tunisia", "nameAr": "تونس", "iso": "TN" },
  { "nameEn": "Turkey", "nameAr": "تركيا", "iso": "TR" },
  { "nameEn": "Turkmenistan", "nameAr": "تركمانستان", "iso": "TM" },
  {
    "nameEn": "Turks and Caicos Islands",
    "nameAr": "جزر تورкс وكايكوس",
    "iso": "TC"
  },
  { "nameEn": "Tuvalu", "nameAr": "توفالو", "iso": "TV" },
  { "nameEn": "Uganda", "nameAr": "أوغندا", "iso": "UG" },
  { "nameEn": "Ukraine", "nameAr": "أوكرانيا", "iso": "UA" },
  {
    "nameEn": "United Arab Emirates",
    "nameAr": "الإمارات العربية المتحدة",
    "iso": "AE"
  },
  { "nameEn": "United Kingdom", "nameAr": "المملكة المتحدة", "iso": "GB" },
  { "nameEn": "United States", "nameAr": "الولايات المتحدة", "iso": "US" },
  {
    "nameEn": "United States Minor Outlying Islands",
    "nameAr": "جزر الولايات المتحدة البعيدة الصغيرة",
    "iso": "UM"
  },
  { "nameEn": "Uruguay", "nameAr": "أوروغواي", "iso": "UY" },
  { "nameEn": "Uzbekistan", "nameAr": "أوزبكستان", "iso": "UZ" },
  { "nameEn": "Vanuatu", "nameAr": "فانواتو", "iso": "VU" },
  { "nameEn": "Venezuela", "nameAr": "فنزويلا", "iso": "VE" },
  { "nameEn": "Vietnam", "nameAr": "فيتنام", "iso": "VN" },
  {
    "nameEn": "Virgin Islands, British",
    "nameAr": "جزر العذراء البريطانية",
    "iso": "VG"
  },
  {
    "nameEn": "Virgin Islands, U.S.",
    "nameAr": "جزر العذراء الأمريكية",
    "iso": "VI"
  },
  { "nameEn": "Wallis and Futuna", "nameAr": "واليس وفوتونا", "iso": "WF" },
  { "nameEn": "Western Sahara", "nameAr": "الصحراء الغربية", "iso": "EH" },
  { "nameEn": "Yemen", "nameAr": "اليمن", "iso": "YE" },
  { "nameEn": "Zambia", "nameAr": "زامبيا", "iso": "ZM" },
  { "nameEn": "Zimbabwe", "nameAr": "زيمبابوي", "iso": "ZW" }
]
